<?xml version="1.0" encoding="UTF-8"?>
<kml xmlns="http://www.opengis.net/kml/2.2" xmlns:gx="http://www.google.com/kml/ext/2.2" xmlns:kml="http://www.opengis.net/kml/2.2">
  <Document>
    <name>oom_67fe281e23f4c</name>
    <Folder>
      <name>Controls</name>
      <Placemark>
        <name>S1</name>
        <Point>
          <coordinates>-1.3743866077123248,50.98520223433832,0</coordinates>
        </Point>
      </Placemark>
      <Placemark>
        <name>1</name>
        <Point>
          <coordinates>-1.376739380661643,50.984736197421995,0</coordinates>
        </Point>
      </Placemark>
      <Placemark>
        <name>2</name>
        <Point>
          <coordinates>-1.3688309641800989,50.98707722664034,0</coordinates>
        </Point>
      </Placemark>
      <Placemark>
        <name>3</name>
        <Point>
          <coordinates>-1.3715403289455428,50.98302826089204,0</coordinates>
        </Point>
      </Placemark>
      <Placemark>
        <name>4</name>
        <Point>
          <coordinates>-1.3575418245147195,50.985273763045655,0</coordinates>
        </Point>
      </Placemark>
      <Placemark>
        <name>5</name>
        <Point>
          <coordinates>-1.3635817343088632,50.981298812052586,0</coordinates>
        </Point>
      </Placemark>
      <Placemark>
        <name>6</name>
        <Point>
          <coordinates>-1.3652415965789906,50.98790264575325,0</coordinates>
        </Point>
      </Placemark>
      <Placemark>
        <name>7</name>
        <Point>
          <coordinates>-1.3592515895637287,50.983241481663015,0</coordinates>
        </Point>
      </Placemark>
      <Placemark>
        <name>8</name>
        <Point>
          <coordinates>-1.3731894084238585,50.98785882257613,0</coordinates>
        </Point>
      </Placemark>
      <Placemark>
        <name>9</name>
        <Point>
          <coordinates>-1.369556644229935,50.980003860736275,0</coordinates>
        </Point>
      </Placemark>
      <Placemark>
        <name>10</name>
        <Point>
          <coordinates>-1.3562172250100104,50.98668038834879,0</coordinates>
        </Point>
      </Placemark>
      <Placemark>
        <name>11</name>
        <Point>
          <coordinates>-1.3785961401997786,50.97942013454653,0</coordinates>
        </Point>
      </Placemark>
      <Placemark>
        <name>12</name>
        <Point>
          <coordinates>-1.3739063185129066,50.986313174922515,0</coordinates>
        </Point>
      </Placemark>
      <Placemark>
        <name>13</name>
        <Point>
          <coordinates>-1.367851274742485,50.98598998709869,0</coordinates>
        </Point>
      </Placemark>
      <Placemark>
        <name>14</name>
        <Point>
          <coordinates>-1.3677069200943053,50.981481655112816,0</coordinates>
        </Point>
      </Placemark>
      <Placemark>
        <name>15</name>
        <Point>
          <coordinates>-1.362278219416555,50.9869465467111,0</coordinates>
        </Point>
      </Placemark>
      <Placemark>
        <name>16</name>
        <Point>
          <coordinates>-1.3537941353942005,50.98024164836227,0</coordinates>
        </Point>
      </Placemark>
      <Placemark>
        <name>17</name>
        <Point>
          <coordinates>-1.3757074083866927,50.98214604355647,0</coordinates>
        </Point>
      </Placemark>
      <Placemark>
        <name>18</name>
        <Point>
          <coordinates>-1.3625476647630534,50.9847344573478,0</coordinates>
        </Point>
      </Placemark>
      <Placemark>
        <name>19</name>
        <Point>
          <coordinates>-1.364331023643133,50.978701621384914,0</coordinates>
        </Point>
      </Placemark>
      <Placemark>
        <name>20</name>
        <Point>
          <coordinates>-1.376356044862652,50.981589201395366,0</coordinates>
        </Point>
      </Placemark>
      <Placemark>
        <name>21</name>
        <Point>
          <coordinates>-1.376564568203664,50.98615293848869,0</coordinates>
        </Point>
      </Placemark>
      <Placemark>
        <name>22</name>
        <Point>
          <coordinates>-1.3689280342199057,50.98863880627454,0</coordinates>
        </Point>
      </Placemark>
      <Placemark>
        <name>23</name>
        <Point>
          <coordinates>-1.3556428474431215,50.98327694801699,0</coordinates>
        </Point>
      </Placemark>
      <Placemark>
        <name>24</name>
        <Point>
          <coordinates>-1.360740954220857,50.97800393650735,0</coordinates>
        </Point>
      </Placemark>
      <Placemark>
        <name>25</name>
        <Point>
          <coordinates>-1.365071428446567,50.982288345781406,0</coordinates>
        </Point>
      </Placemark>
      <Placemark>
        <name>26</name>
        <Point>
          <coordinates>-1.3795595555650602,50.983063313006795,0</coordinates>
        </Point>
      </Placemark>
      <Placemark>
        <name>27</name>
        <Point>
          <coordinates>-1.3762396610510492,50.97879975602936,0</coordinates>
        </Point>
      </Placemark>
      <Placemark>
        <name>28</name>
        <Point>
          <coordinates>-1.357266242954165,50.98879466630402,0</coordinates>
        </Point>
      </Placemark>
      <Placemark>
        <name>29</name>
        <Point>
          <coordinates>-1.366839544307001,50.97951234214989,0</coordinates>
        </Point>
      </Placemark>
      <Placemark>
        <name>30</name>
        <Point>
          <coordinates>-1.3719557490172476,50.98096200323184,0</coordinates>
        </Point>
      </Placemark>
      <Placemark>
        <name>F1</name>
        <Point>
          <coordinates>-1.3743866077123248,50.98520223433832,0</coordinates>
        </Point>
      </Placemark>
    </Folder>
  </Document>
</kml>